NORAD_CAT_ID,OBJECT_NAME,OBJECT_TYPE,EPOCH,MEAN_MOTION,ECCENTRICITY,INCLINATION,RA_OF_ASC_NODE,ARG_OF_PERICENTER,MEAN_ANOMALY,BSTAR,MEAN_MOTION_DOT,MEAN_MOTION_DDOT,TLE_LINE0,TLE_LINE1,TLE_LINE2,SEMIMAJOR_AXIS,PERIOD,APOGEE,PERIGEE,DECAYED
53704.0,STARLINK-4714,PAYLOAD,2023-02-08 21:21:15,15.08840037,0.0001133,53.217,253.7904,87.1693,272.9428,3.0683e-05,2.01e-06,0.0,0 STARLINK-4714,1 53704U 22107E   23039.88976327  .00000201  00000-0  30683-4 0  9995,2 53704  53.2170 253.7904 0001133  87.1693 272.9428 15.08840037 24883,6917.88,95.438,540.529,538.961,0.0
53704.0,STARLINK-4714,PAYLOAD,2023-02-09 10:04:20,15.08836169,0.0001064,53.216,251.4101,96.5838,263.5276,3.9434e-06,-2.25e-06,0.0,0 STARLINK-4714,1 53704U 22107E   23040.41968234 -.00000225  00000-0  39434-5 0  9995,2 53704  53.2160 251.4101 0001064  96.5838 263.5276 15.08836169 24961,6917.892,95.438,540.493,539.021,0.0
53704.0,STARLINK-4714,PAYLOAD,2023-02-09 13:15:07,15.0883911,0.0001076,53.2167,250.8169,100.0175,260.0939,-3.1653e-06,-3.38e-06,0.0,0 STARLINK-4714,1 53704U 22107E   23040.55216640 -.00000338  00000-0 -31653-5 0  9998,2 53704  53.2167 250.8169 0001076 100.0175 260.0939 15.08839110 24397,6917.883,95.438,540.492,539.004,0.0
53704.0,STARLINK-4714,PAYLOAD,2023-02-09 19:36:39,15.08841048,0.0001064,53.2168,249.6271,94.2006,265.9107,1.9235e-05,1.8e-07,0.0,0 STARLINK-4714,1 53704U 22107E   23040.81712522  .00000018  00000-0  19235-4 0  9991,2 53704  53.2168 249.6271 0001064  94.2006 265.9107 15.08841048 25027,6917.877,95.437,540.478,539.006,0.0
53704.0,STARLINK-4714,PAYLOAD,2023-02-09 21:12:02,15.08842464,0.0001065,53.2168,249.33,91.6467,268.4647,3.4395e-05,2.6e-06,0.0,0 STARLINK-4714,1 53704U 22107E   23040.88336406  .00000260  00000-0  34395-4 0  9994,2 53704  53.2168 249.3300 0001065  91.6467 268.4647 15.08842464 25031,6917.873,95.437,540.475,539.001,0.0
53704.0,STARLINK-4714,PAYLOAD,2023-02-10 16:16:40,15.08840089,0.0001064,53.2168,245.7618,91.7555,268.3559,0.00016075,2.271e-05,0.0,0 STARLINK-4714,1 53704U 22107E   23041.67824451  .00002271  00000-0  16075-3 0  9992,2 53704  53.2168 245.7618 0001064  91.7555 268.3559 15.08840089 24560,6917.88,95.438,540.481,539.009,0.0
53704.0,STARLINK-4714,PAYLOAD,2023-02-11 08:10:31,15.08840536,0.0001066,53.2162,242.7884,85.1399,274.9715,0.00011917,1.609e-05,0.0,0 STARLINK-4714,1 53704U 22107E   23042.34064528  .00001609  00000-0  11917-3 0  9992,2 53704  53.2162 242.7884 0001066  85.1399 274.9715 15.08840536 25252,6917.879,95.438,540.481,539.006,0.0
53704.0,STARLINK-4714,PAYLOAD,2023-02-11 19:18:14,15.08835875,0.0001072,53.2161,240.7066,83.0445,277.0669,0.00017385,2.48e-05,0.0,0 STARLINK-4714,1 53704U 22107E   23042.80432903  .00002480  00000-0  17385-3 0  9992,2 53704  53.2161 240.7066 0001072  83.0445 277.0669 15.08835875 24731,6917.893,95.438,540.5,539.016,0.0
53704.0,STARLINK-4714,PAYLOAD,2023-02-12 12:47:28,15.08838308,9.97e-05,53.2171,237.4348,92.7651,267.3455,1.8438e-05,6e-08,0.0,0 STARLINK-4714,1 53704U 22107E   23043.53297048  .00000006  00000-0  18438-4 0  9995,2 53704  53.2171 237.4348 0000997  92.7651 267.3455 15.08838308 25436,6917.886,95.438,540.44,539.061,0.0
53704.0,STARLINK-4714,PAYLOAD,2023-02-12 22:19:46,15.08847342,0.0001077,53.2168,235.6502,91.1311,268.9804,4.3647e-05,4.07e-06,0.0,0 STARLINK-4714,1 53704U 22107E   23043.93040365  .00000407  00000-0  43647-4 0  9992,2 53704  53.2168 235.6502 0001077  91.1311 268.9804 15.08847342 24904,6917.858,95.437,540.468,538.978,0.0
53704.0,STARLINK-4714,PAYLOAD,2023-02-13 12:38:15,15.08839689,0.0001124,53.2168,232.9738,85.5796,274.5325,8.2058e-05,1.018e-05,0.0,0 STARLINK-4714,1 53704U 22107E   23044.52656748  .00001018  00000-0  82058-4 0  9994,2 53704  53.2168 232.9738 0001124  85.5796 274.5325 15.08839689 24997,6917.881,95.438,540.524,538.969,0.0
53704.0,STARLINK-4714,PAYLOAD,2023-02-13 18:59:47,15.08846485,0.0001134,53.2169,231.7843,81.577,278.5351,0.00013357,1.839e-05,0.0,0 STARLINK-4714,1 53704U 22107E   23044.79152189  .00001839  00000-0  13357-3 0  9999,2 53704  53.2169 231.7843 0001134  81.5770 278.5351 15.08846485 25032,6917.861,95.437,540.51,538.941,0.0
53704.0,STARLINK-4714,PAYLOAD,2023-02-14 07:42:53,15.08838923,0.0001129,53.2171,229.4057,80.696,279.416,7.2739e-05,8.7e-06,0.0,0 STARLINK-4714,1 53704U 22107E   23045.32144824  .00000870  00000-0  72739-4 0  9990,2 53704  53.2171 229.4057 0001129  80.6960 279.4160 15.08838923 25116,6917.884,95.438,540.53,538.968,0.0
53704.0,STARLINK-4714,PAYLOAD,2023-02-14 12:29:02,15.08833891,0.000118,53.2167,228.5132,80.9381,279.1744,6.2407e-05,7.05e-06,0.0,0 STARLINK-4714,1 53704U 22107E   23045.52017172  .00000705  00000-0  62407-4 0  9995,2 53704  53.2167 228.5132 0001180  80.9381 279.1744 15.08833891 25734,6917.899,95.438,540.58,538.948,0.0
53704.0,STARLINK-4714,PAYLOAD,2023-02-14 18:50:35,15.08838661,0.0001086,53.2173,227.3246,79.5807,280.5307,9.6386e-05,1.246e-05,0.0,0 STARLINK-4714,1 53704U 22107E   23045.78512812  .00001246  00000-0  96386-4 0  9998,2 53704  53.2173 227.3246 0001086  79.5807 280.5307 15.08838661 25771,6917.884,95.438,540.501,538.998,0.0
53704.0,STARLINK-4714,PAYLOAD,2023-02-15 12:19:49,15.08840102,0.0001057,53.2174,224.0542,80.5409,279.5702,3.8264e-05,3.21e-06,0.0,0 STARLINK-4714,1 53704U 22107E   23046.51376853  .00000321  00000-0  38264-4 0  9997,2 53704  53.2174 224.0542 0001057  80.5409 279.5702 15.08840102 25290,6917.88,95.438,540.476,539.014,0.0
53704.0,STARLINK-4714,PAYLOAD,2023-02-15 18:41:21,15.08849834,0.0001231,53.2162,222.8637,80.5501,279.563,0.00012051,1.631e-05,0.0,0 STARLINK-4714,1 53704U 22107E   23046.77871973  .00001631  00000-0  12051-3 0  9998,2 53704  53.2162 222.8637 0001231  80.5501 279.5630 15.08849834 25331,6917.85,95.437,540.567,538.864,0.0
53704.0,STARLINK-4714,PAYLOAD,2023-02-16 12:10:36,15.08834304,9.57e-05,53.2167,219.5926,84.6688,275.4413,5.2579e-05,5.49e-06,0.0,0 STARLINK-4714,1 53704U 22107E   23047.50737102  .00000549  00000-0  52579-4 0  9992,2 53704  53.2167 219.5926 0000957  84.6688 275.4413 15.08834304 26033,6917.898,95.438,540.425,539.101,0.0
53704.0,STARLINK-4714,PAYLOAD,2023-02-16 13:45:59,15.08840563,8.65e-05,53.2175,219.2975,85.2862,274.8228,9.4705e-05,1.22e-05,0.0,0 STARLINK-4714,1 53704U 22107E   23047.57360608  .00001220  00000-0  94705-4 0  9996,2 53704  53.2175 219.2975 0000865  85.2862 274.8228 15.08840563 25458,6917.879,95.438,540.342,539.145,0.0
53704.0,STARLINK-4714,PAYLOAD,2023-02-16 18:32:08,15.08842073,9.57e-05,53.2173,218.4049,86.9002,273.21,0.0001056,1.393e-05,0.0,0 STARLINK-4714,1 53704U 22107E   23047.77232444  .00001393  00000-0  10560-3 0  9991,2 53704  53.2173 218.4049 0000957  86.9002 273.2100 15.08842073 26074,6917.874,95.437,540.401,539.077,0.0
53704.0,STARLINK-4714,PAYLOAD,2023-02-17 04:04:27,15.08843975,8.98e-05,53.2179,216.62,86.804,273.3054,8.4455e-05,1.057e-05,0.0,0 STARLINK-4714,1 53704U 22107E   23048.16976225  .00001057  00000-0  84455-4 0  9999,2 53704  53.2179 216.6200 0000898  86.8040 273.3054 15.08843975 26132,6917.868,95.437,540.354,539.112,0.0
53704.0,STARLINK-4714,PAYLOAD,2023-02-17 13:36:47,15.08828819,0.000184,53.2155,214.8338,82.9172,277.2029,-4.8835e-05,-1.065e-05,0.0,0 STARLINK-4714,1 53704U 22107E   23048.56722089 -.00001065  00000-0 -48835-4 0  9993,2 53704  53.2155 214.8338 0001840  82.9172 277.2029 15.08828819 25605,6917.915,95.438,541.052,538.507,0.0
53704.0,STARLINK-4714,PAYLOAD,2023-02-17 18:22:55,15.08855719,0.0001293,53.2185,213.9419,158.7719,201.3327,-1.6515e-05,-5.51e-06,0.0,0 STARLINK-4714,1 53704U 22107E   23048.76591694 -.00000551  00000-0 -16515-4 0  9990,2 53704  53.2185 213.9419 0001293 158.7719 201.3327 15.08855719 25630,6917.832,95.437,540.592,538.803,0.0
53704.0,STARLINK-4714,PAYLOAD,2023-02-18 10:16:48,15.08835497,0.0001025,53.218,210.9695,94.0665,266.0444,-1.2236e-05,-4.82e-06,0.0,0 STARLINK-4714,1 53704U 22107E   23049.42833592 -.00000482  00000-0 -12236-4 0  9999,2 53704  53.2180 210.9695 0001025  94.0665 266.0444 15.08835497 25733,6917.894,95.438,540.468,539.05,0.0
53704.0,STARLINK-4714,PAYLOAD,2023-02-18 13:27:34,15.08840256,8.94e-05,53.218,210.375,97.5351,262.5743,2.831e-05,1.63e-06,0.0,0 STARLINK-4714,1 53704U 22107E   23049.56081089  .00000163  00000-0  28310-4 0  9994,2 53704  53.2180 210.3750 0000894  97.5351 262.5743 15.08840256 26342,6917.88,95.438,540.363,539.126,0.0
53704.0,STARLINK-4714,PAYLOAD,2023-02-19 03:46:02,15.08842465,8.09e-05,53.2184,207.6984,84.5809,275.5275,2.3313e-05,8.3e-07,0.0,0 STARLINK-4714,1 53704U 22107E   23050.15696983  .00000083  00000-0  23313-4 0  9995,2 53704  53.2184 207.6984 0000809  84.5809 275.5275 15.08842465 25846,6917.873,95.437,540.298,539.178,0.0
53704.0,STARLINK-4714,PAYLOAD,2023-02-19 14:53:44,15.088355,0.0001118,53.2177,205.6179,84.1341,275.9778,0.00016729,2.375e-05,0.0,0 STARLINK-4714,1 53704U 22107E   23050.62065269  .00002375  00000-0  16729-3 0  9992,2 53704  53.2177 205.6179 0001118  84.1341 275.9778 15.08835500 26501,6917.894,95.438,540.533,538.986,0.0
53704.0,STARLINK-4714,PAYLOAD,2023-02-20 03:36:49,15.08840856,0.00011,53.2183,203.2391,81.4735,278.6381,0.00012506,1.703e-05,0.0,0 STARLINK-4714,1 53704U 22107E   23051.15057026  .00001703  00000-0  12506-3 0  9996,2 53704  53.2183 203.2391 0001100  81.4735 278.6381 15.08840856 26584,6917.878,95.438,540.504,538.982,0.0
53704.0,STARLINK-4714,PAYLOAD,2023-02-20 19:30:41,15.08840993,0.0001299,53.2177,200.265,89.662,270.4521,3.2615e-05,2.31e-06,0.0,0 STARLINK-4714,1 53704U 22107E   23051.81297461  .00000231  00000-0  32615-4 0  9997,2 53704  53.2177 200.2650 0001299  89.6620 270.4521 15.08840993 26098,6917.877,95.437,540.641,538.844,0.0
53704.0,STARLINK-4714,PAYLOAD,2023-02-21 14:35:18,15.08847017,0.000129,53.2164,196.6965,85.1419,274.9721,7.0473e-05,8.34e-06,0.0,0 STARLINK-4714,1 53704U 22107E   23052.60784918  .00000834  00000-0  70473-4 0  9996,2 53704  53.2164 196.6965 0001290  85.1419 274.9721 15.08847017 26803,6917.859,95.437,540.616,538.832,0.0
